{"type":"FeatureCollection","features":[{"type":"Feature","properties":{"nama":"Alfamart","sumber":"best:master"},"geometry":{"type":"Point","coordinates":[110.399465,-6.99241]}},{"type":"Feature","properties":{"nama":"Alfamart","sumber":"best:master"},"geometry":{"type":"Point","coordinates":[110.420219,-6.982497]}},{"type":"Feature","properties":{"nama":"Alfamart","sumber":"best:master"},"geometry":{"type":"Point","coordinates":[110.429596,-6.993215]}},{"type":"Feature","properties":{"nama":"Alfamart","sumber":"best:master"},"geometry":{"type":"Point","coordinates":[110.425903,-6.971427]}},{"type":"Feature","properties":{"nama":"Alfamart WR Supratman","sumber":"best:master"},"geometry":{"type":"Point","coordinates":[110.385048,-6.990753]}},{"type":"Feature","properties":{"nama":"Indomaret","sumber":"best:master"},"geometry":{"type":"Point","coordinates":[110.410831,-7.093826]}},{"type":"Feature","properties":{"nama":"Indomaret","sumber":"best:master"},"geometry":{"type":"Point","coordinates":[110.388207,-6.998737]}},{"type":"Feature","properties":{"nama":"Indomaret","sumber":"best:master"},"geometry":{"type":"Point","coordinates":[110.403462,-6.99056]}},{"type":"Feature","properties":{"nama":"Indomaret","sumber":"best:master"},"geometry":{"type":"Point","coordinates":[110.396721,-7.000215]}},{"type":"Feature","properties":{"nama":"Indomaret","sumber":"best:master"},"geometry":{"type":"Point","coordinates":[110.383408,-7.021121]}},{"type":"Feature","properties":{"nama":"Alfamart","sumber":"best:master"},"geometry":{"type":"Point","coordinates":[110.424358,-7.070556]}},{"type":"Feature","properties":{"nama":"Alfamart","sumber":"best:master"},"geometry":{"type":"Point","coordinates":[110.41894,-6.975418]}},{"type":"Feature","properties":{"nama":"Indomaret","sumber":"best:master"},"geometry":{"type":"Point","coordinates":[110.32991,-6.994751]}},{"type":"Feature","properties":{"nama":"Indomaret","sumber":"best:master"},"geometry":{"type":"Point","coordinates":[110.316376,-7.100555]}},{"type":"Feature","properties":{"nama":"Indomaret A. Yani","sumber":"best:master"},"geometry":{"type":"Point","coordinates":[110.431099,-6.993933]}},{"type":"Feature","properties":{"nama":"ALFAMART  Jl Citarum Semarang Jawa Tengah","sumber":"best:master"},"geometry":{"type":"Point","coordinates":[110.453133,-6.985064]}},{"type":"Feature","properties":{"nama":"Alfamart","sumber":"best:master"},"geometry":{"type":"Point","coordinates":[110.47573,-7.059347]}},{"type":"Feature","properties":{"nama":"Alfamart","sumber":"best:master"},"geometry":{"type":"Point","coordinates":[110.387627,-6.987728]}},{"type":"Feature","properties":{"nama":"Indomaret","sumber":"best:master"},"geometry":{"type":"Point","coordinates":[110.374908,-7.018765]}},{"type":"Feature","properties":{"nama":"Indomaret","sumber":"best:master"},"geometry":{"type":"Point","coordinates":[110.437126,-6.994199]}},{"type":"Feature","properties":{"nama":"Misterburger Indomaret Dewi Sartika","sumber":"best:master"},"geometry":{"type":"Point","coordinates":[110.381401,-7.021151]}},{"type":"Feature","properties":{"nama":"Alfamart","sumber":"best:master"},"geometry":{"type":"Point","coordinates":[110.422691,-6.982555]}},{"type":"Feature","properties":{"nama":"Alfamart","sumber":"best:master"},"geometry":{"type":"Point","coordinates":[110.415939,-6.98373]}},{"type":"Feature","properties":{"nama":"Alfamart","sumber":"best:master"},"geometry":{"type":"Point","coordinates":[110.387576,-7.007959]}},{"type":"Feature","properties":{"nama":"Alfamart Cangkiran Smg","sumber":"best:master"},"geometry":{"type":"Point","coordinates":[110.305588,-7.097591]}},{"type":"Feature","properties":{"nama":"Alfamart Kaligawe","sumber":"best:master"},"geometry":{"type":"Point","coordinates":[110.429352,-7.052829]}},{"type":"Feature","properties":{"nama":"Indomaret","sumber":"best:master"},"geometry":{"type":"Point","coordinates":[110.43532,-7.05868]}},{"type":"Feature","properties":{"nama":"Indomaret","sumber":"best:master"},"geometry":{"type":"Point","coordinates":[110.309979,-7.071276]}},{"type":"Feature","properties":{"nama":"Indomaret","sumber":"best:master"},"geometry":{"type":"Point","coordinates":[110.434837,-6.96522]}},{"type":"Feature","properties":{"nama":"Alfamart","sumber":"best:master"},"geometry":{"type":"Point","coordinates":[110.428818,-7.028623]}},{"type":"Feature","properties":{"nama":"Indomaret","sumber":"best:master"},"geometry":{"type":"Point","coordinates":[110.413873,-6.973803]}},{"type":"Feature","properties":{"nama":"Indomaret","sumber":"best:master"},"geometry":{"type":"Point","coordinates":[110.460515,-7.057456]}},{"type":"Feature","properties":{"nama":"PT.ALFAMART. Mangkang,Semarang","sumber":"best:master"},"geometry":{"type":"Point","coordinates":[110.325027,-6.974393]}},{"type":"Feature","properties":{"nama":"ALFAMART Tlogosari Kulon","sumber":"best:master"},"geometry":{"type":"Point","coordinates":[110.454636,-6.984789]}},{"type":"Feature","properties":{"nama":"Alfamart","sumber":"best:master"},"geometry":{"type":"Point","coordinates":[110.382011,-6.990147]}},{"type":"Feature","properties":{"nama":"Indomaret","sumber":"best:master"},"geometry":{"type":"Point","coordinates":[110.417877,-7.003586]}},{"type":"Feature","properties":{"nama":"Indomaret","sumber":"best:master"},"geometry":{"type":"Point","coordinates":[110.397169,-6.98091]}},{"type":"Feature","properties":{"nama":"Alfamart","sumber":"best:master"},"geometry":{"type":"Point","coordinates":[110.405725,-6.973718]}},{"type":"Feature","properties":{"nama":"Alfamart","sumber":"best:master"},"geometry":{"type":"Point","coordinates":[110.420418,-7.047893]}},{"type":"Feature","properties":{"nama":"Alfamart","sumber":"best:master"},"geometry":{"type":"Point","coordinates":[110.417645,-7.091223]}},{"type":"Feature","properties":{"nama":"Alfamart","sumber":"best:master"},"geometry":{"type":"Point","coordinates":[110.428068,-7.020829]}},{"type":"Feature","properties":{"nama":"Alfamart","sumber":"best:master"},"geometry":{"type":"Point","coordinates":[110.392685,-7.012902]}},{"type":"Feature","properties":{"nama":"Indomaret","sumber":"best:master"},"geometry":{"type":"Point","coordinates":[110.462151,-6.955564]}},{"type":"Feature","properties":{"nama":"Alfamart","sumber":"best:master"},"geometry":{"type":"Point","coordinates":[110.411504,-7.071555]}},{"type":"Feature","properties":{"nama":"Alfamart","sumber":"best:master"},"geometry":{"type":"Point","coordinates":[110.411613,-6.97012]}},{"type":"Feature","properties":{"nama":"Alfamart","sumber":"best:master"},"geometry":{"type":"Point","coordinates":[110.420021,-6.967878]}},{"type":"Feature","properties":{"nama":"Alfamart Gunung Pati","sumber":"best:master"},"geometry":{"type":"Point","coordinates":[110.381866,-7.030338]}},{"type":"Feature","properties":{"nama":"Alfamart Sompok Smg","sumber":"best:master"},"geometry":{"type":"Point","coordinates":[110.441528,-7.00528]}},{"type":"Feature","properties":{"nama":"Indomaret","sumber":"best:master"},"geometry":{"type":"Point","coordinates":[110.479965,-6.979316]}},{"type":"Feature","properties":{"nama":"Indomaret","sumber":"best:master"},"geometry":{"type":"Point","coordinates":[110.424995,-7.04858]}},{"type":"Feature","properties":{"nama":"Indomaret","sumber":"best:master"},"geometry":{"type":"Point","coordinates":[110.328102,-6.98998]}},{"type":"Feature","properties":{"nama":"Indomaret Gajah Semarang","sumber":"best:master"},"geometry":{"type":"Point","coordinates":[110.463112,-7.015049]}},{"type":"Feature","properties":{"nama":"Indomaret Moch. Suyudi","sumber":"best:master"},"geometry":{"type":"Point","coordinates":[110.420387,-6.982723]}},{"type":"Feature","properties":{"nama":"Indomaret Point Pamularsih","sumber":"best:master"},"geometry":{"type":"Point","coordinates":[110.392136,-6.987934]}},{"type":"Feature","properties":{"nama":"Alfamart","sumber":"best:master"},"geometry":{"type":"Point","coordinates":[110.438164,-7.004989]}},{"type":"Feature","properties":{"nama":"Indomaret","sumber":"best:master"},"geometry":{"type":"Point","coordinates":[110.42828,-6.97939]}},{"type":"Feature","properties":{"nama":"Indomaret","sumber":"best:master"},"geometry":{"type":"Point","coordinates":[110.442085,-7.059003]}},{"type":"Feature","properties":{"nama":"Indomaret","sumber":"best:master"},"geometry":{"type":"Point","coordinates":[110.397887,-6.980176]}},{"type":"Feature","properties":{"nama":"Indomaret","sumber":"best:master"},"geometry":{"type":"Point","coordinates":[110.418001,-7.029272]}},{"type":"Feature","properties":{"nama":"Indomaret","sumber":"best:master"},"geometry":{"type":"Point","coordinates":[110.466263,-6.962727]}},{"type":"Feature","properties":{"nama":"Indomaret","sumber":"best:master"},"geometry":{"type":"Point","coordinates":[110.347588,-6.994483]}},{"type":"Feature","properties":{"nama":"Indomaret","sumber":"best:master"},"geometry":{"type":"Point","coordinates":[110.443794,-6.99526]}},{"type":"Feature","properties":{"nama":"Alfamart","sumber":"best:master"},"geometry":{"type":"Point","coordinates":[110.475647,-6.982433]}},{"type":"Feature","properties":{"nama":"Alfamart","sumber":"best:master"},"geometry":{"type":"Point","coordinates":[110.412178,-6.976891]}},{"type":"Feature","properties":{"nama":"Alfamart","sumber":"best:master"},"geometry":{"type":"Point","coordinates":[110.425682,-7.003325]}},{"type":"Feature","properties":{"nama":"Alfamart","sumber":"best:master"},"geometry":{"type":"Point","coordinates":[110.319335,-7.091304]}},{"type":"Feature","properties":{"nama":"Alfamart","sumber":"best:master"},"geometry":{"type":"Point","coordinates":[110.428807,-6.97032]}},{"type":"Feature","properties":{"nama":"Indomaret","sumber":"best:master"},"geometry":{"type":"Point","coordinates":[110.379639,-6.994411]}},{"type":"Feature","properties":{"nama":"Indomaret","sumber":"best:master"},"geometry":{"type":"Point","coordinates":[110.430088,-7.066558]}},{"type":"Feature","properties":{"nama":"Indomaret","sumber":"best:master"},"geometry":{"type":"Point","coordinates":[110.479378,-6.957418]}},{"type":"Feature","properties":{"nama":"Alfamart","sumber":"best:master"},"geometry":{"type":"Point","coordinates":[110.409721,-7.093315]}},{"type":"Feature","properties":{"nama":"Alfamart","sumber":"best:master"},"geometry":{"type":"Point","coordinates":[110.473251,-7.037521]}},{"type":"Feature","properties":{"nama":"Indomaret Jl.Brigjend Sudiarto","sumber":"best:master"},"geometry":{"type":"Point","coordinates":[110.499527,-7.018758]}},{"type":"Feature","properties":{"nama":"Alfamart","sumber":"best:master"},"geometry":{"type":"Point","coordinates":[110.430464,-7.054622]}},{"type":"Feature","properties":{"nama":"Alfamart","sumber":"best:master"},"geometry":{"type":"Point","coordinates":[110.462265,-7.060541]}},{"type":"Feature","properties":{"nama":"Alfamart","sumber":"best:master"},"geometry":{"type":"Point","coordinates":[110.30983,-7.070919]}},{"type":"Feature","properties":{"nama":"Alfamart H385 Supriyadi","sumber":"best:master"},"geometry":{"type":"Point","coordinates":[110.455978,-6.998494]}},{"type":"Feature","properties":{"nama":"Alfamart Karang Ingas","sumber":"best:master"},"geometry":{"type":"Point","coordinates":[110.453621,-6.971859]}},{"type":"Feature","properties":{"nama":"Indomaret","sumber":"best:master"},"geometry":{"type":"Point","coordinates":[110.429879,-6.967551]}},{"type":"Feature","properties":{"nama":"Indomaret","sumber":"best:master"},"geometry":{"type":"Point","coordinates":[110.465561,-6.997793]}},{"type":"Feature","properties":{"nama":"Indomaret","sumber":"best:master"},"geometry":{"type":"Point","coordinates":[110.414764,-7.029295]}},{"type":"Feature","properties":{"nama":"Indomaret","sumber":"best:master"},"geometry":{"type":"Point","coordinates":[110.431625,-7.007258]}},{"type":"Feature","properties":{"nama":"Indomaret","sumber":"best:master"},"geometry":{"type":"Point","coordinates":[110.470108,-6.955435]}},{"type":"Feature","properties":{"nama":"Alfamart","sumber":"best:master"},"geometry":{"type":"Point","coordinates":[110.402859,-6.974683]}},{"type":"Feature","properties":{"nama":"Alfamart","sumber":"best:master"},"geometry":{"type":"Point","coordinates":[110.458458,-7.032584]}},{"type":"Feature","properties":{"nama":"Alfamart","sumber":"best:master"},"geometry":{"type":"Point","coordinates":[110.442207,-6.994393]}},{"type":"Feature","properties":{"nama":"Alfamart","sumber":"best:master"},"geometry":{"type":"Point","coordinates":[110.316002,-7.054191]}},{"type":"Feature","properties":{"nama":"Indomaret","sumber":"best:master"},"geometry":{"type":"Point","coordinates":[110.456337,-6.99636]}},{"type":"Feature","properties":{"nama":"Indomaret","sumber":"best:master"},"geometry":{"type":"Point","coordinates":[110.465248,-7.020327]}},{"type":"Feature","properties":{"nama":"Indomaret","sumber":"best:master"},"geometry":{"type":"Point","coordinates":[110.459412,-6.985262]}},{"type":"Feature","properties":{"nama":"Indomaret","sumber":"best:master"},"geometry":{"type":"Point","coordinates":[110.488724,-7.020257]}},{"type":"Feature","properties":{"nama":"Indomaret Point RSUP Kariadi","sumber":"best:master"},"geometry":{"type":"Point","coordinates":[110.410423,-6.993821]}},{"type":"Feature","properties":{"nama":"Alfamart","sumber":"best:master"},"geometry":{"type":"Point","coordinates":[110.356834,-6.996914]}},{"type":"Feature","properties":{"nama":"Alfamart","sumber":"best:master"},"geometry":{"type":"Point","coordinates":[110.318855,-6.975281]}},{"type":"Feature","properties":{"nama":"Alfamart","sumber":"best:master"},"geometry":{"type":"Point","coordinates":[110.411993,-6.985799]}},{"type":"Feature","properties":{"nama":"Alfamart","sumber":"best:master"},"geometry":{"type":"Point","coordinates":[110.417999,-7.016029]}},{"type":"Feature","properties":{"nama":"Alfamart","sumber":"best:master"},"geometry":{"type":"Point","coordinates":[110.428215,-6.964278]}},{"type":"Feature","properties":{"nama":"Indomaret","sumber":"best:master"},"geometry":{"type":"Point","coordinates":[110.432884,-6.98522]}},{"type":"Feature","properties":{"nama":"Indomaret","sumber":"best:master"},"geometry":{"type":"Point","coordinates":[110.360973,-7.084439]}},{"type":"Feature","properties":{"nama":"Indomaret","sumber":"best:master"},"geometry":{"type":"Point","coordinates":[110.33477,-7.024423]}},{"type":"Feature","properties":{"nama":"Indomaret Woltermonginsidi","sumber":"best:master"},"geometry":{"type":"Point","coordinates":[110.479294,-6.993371]}},{"type":"Feature","properties":{"nama":"Alfamart Tambak Aji","sumber":"best:master"},"geometry":{"type":"Point","coordinates":[110.33609,-6.982837]}},{"type":"Feature","properties":{"nama":"Indomaret","sumber":"best:master"},"geometry":{"type":"Point","coordinates":[110.385933,-6.987415]}},{"type":"Feature","properties":{"nama":"Indomaret","sumber":"best:master"},"geometry":{"type":"Point","coordinates":[110.426727,-6.981062]}},{"type":"Feature","properties":{"nama":"Indomaret","sumber":"best:master"},"geometry":{"type":"Point","coordinates":[110.416374,-6.9868]}},{"type":"Feature","properties":{"nama":"Indomaret","sumber":"best:master"},"geometry":{"type":"Point","coordinates":[110.438218,-7.00952]}},{"type":"Feature","properties":{"nama":"Indomaret","sumber":"best:master"},"geometry":{"type":"Point","coordinates":[110.411041,-6.969456]}},{"type":"Feature","properties":{"nama":"Indomaret","sumber":"best:master"},"geometry":{"type":"Point","coordinates":[110.448372,-6.974362]}},{"type":"Feature","properties":{"nama":"ANTERAH  Jl Gajah Raya Semarang Jawa Tengah","sumber":"overture"},"geometry":{"type":"Point","coordinates":[110.449066,-6.978544]}},{"type":"Feature","properties":{"nama":"Afta Betta Semarang","sumber":"overture"},"geometry":{"type":"Point","coordinates":[110.437073,-6.951388]}},{"type":"Feature","properties":{"nama":"Agusant72","sumber":"overture"},"geometry":{"type":"Point","coordinates":[110.430054,-7.025836]}},{"type":"Feature","properties":{"nama":"Alfa Mart Karangrejo Banyumanik","sumber":"overture"},"geometry":{"type":"Point","coordinates":[110.409988,-7.07684]}},{"type":"Feature","properties":{"nama":"Alfamidi","sumber":"osm"},"geometry":{"type":"Point","coordinates":[110.474417,-7.0376]}},{"type":"Feature","properties":{"nama":"Alfamidi","sumber":"osm"},"geometry":{"type":"Point","coordinates":[110.457813,-7.03724]}},{"type":"Feature","properties":{"nama":"Alfamidi","sumber":"osm"},"geometry":{"type":"Point","coordinates":[110.432612,-7.068294]}},{"type":"Feature","properties":{"nama":"Alfamidi","sumber":"osm"},"geometry":{"type":"Point","coordinates":[110.448266,-6.986695]}},{"type":"Feature","properties":{"nama":"Alfamidi","sumber":"osm"},"geometry":{"type":"Point","coordinates":[110.361121,-7.084787]}},{"type":"Feature","properties":{"nama":"Alfamidi","sumber":"osm"},"geometry":{"type":"Point","coordinates":[110.473323,-6.996129]}},{"type":"Feature","properties":{"nama":"Alfamidi","sumber":"osm"},"geometry":{"type":"Point","coordinates":[110.419012,-7.075209]}},{"type":"Feature","properties":{"nama":"Alfamidi Fatmawati","sumber":"overture"},"geometry":{"type":"Point","coordinates":[110.470772,-7.019666]}},{"type":"Feature","properties":{"nama":"Alfamidi Hasanudin","sumber":"overture"},"geometry":{"type":"Point","coordinates":[110.41127,-6.965125]}},{"type":"Feature","properties":{"nama":"Alfamidi Kedung Mundu","sumber":"overture"},"geometry":{"type":"Point","coordinates":[110.452446,-7.014272]}},{"type":"Feature","properties":{"nama":"Alfamidi Kelud Raya","sumber":"overture"},"geometry":{"type":"Point","coordinates":[110.398712,-7.004065]}},{"type":"Feature","properties":{"nama":"Alfamidi Lamongan","sumber":"overture"},"geometry":{"type":"Point","coordinates":[110.396111,-7.010612]}},{"type":"Feature","properties":{"nama":"Alfamidi Ngesrep","sumber":"osm"},"geometry":{"type":"Point","coordinates":[110.425613,-7.051596]}},{"type":"Feature","properties":{"nama":"Alfamidi S. Parman X JA_Di Coffeeshop","sumber":"overture"},"geometry":{"type":"Point","coordinates":[110.409279,-6.996228]}},{"type":"Feature","properties":{"nama":"Aneka Doos Semarang","sumber":"overture"},"geometry":{"type":"Point","coordinates":[110.448891,-7.012426]}},{"type":"Feature","properties":{"nama":"Aneka Pancing","sumber":"overture"},"geometry":{"type":"Point","coordinates":[110.38694,-6.994431]}},{"type":"Feature","properties":{"nama":"Aneka Selang","sumber":"overture"},"geometry":{"type":"Point","coordinates":[110.441216,-6.960406]}},{"type":"Feature","properties":{"nama":"Anik Mart","sumber":"overture"},"geometry":{"type":"Point","coordinates":[110.428635,-6.980892]}},{"type":"Feature","properties":{"nama":"Anita Cell","sumber":"overture"},"geometry":{"type":"Point","coordinates":[110.372314,-7.001694]}},{"type":"Feature","properties":{"nama":"Anterah Peterongan","sumber":"overture"},"geometry":{"type":"Point","coordinates":[110.432854,-7.003344]}},{"type":"Feature","properties":{"nama":"Antika Jaya Sakti","sumber":"overture"},"geometry":{"type":"Point","coordinates":[110.456581,-7.012098]}},{"type":"Feature","properties":{"nama":"Anugrah tas","sumber":"overture"},"geometry":{"type":"Point","coordinates":[110.478554,-6.963316]}},{"type":"Feature","properties":{"nama":"Ar Rodiyah Mart","sumber":"overture"},"geometry":{"type":"Point","coordinates":[110.457512,-7.034083]}},{"type":"Feature","properties":{"nama":"Areng Kayu Pak Jarwo","sumber":"overture"},"geometry":{"type":"Point","coordinates":[110.471504,-7.015672]}},{"type":"Feature","properties":{"nama":"ArwaMart","sumber":"overture"},"geometry":{"type":"Point","coordinates":[110.495987,-6.975844]}},{"type":"Feature","properties":{"nama":"Azihan Mart","sumber":"overture"},"geometry":{"type":"Point","coordinates":[110.388382,-7.073192]}},{"type":"Feature","properties":{"nama":"Bandar Herbal Semarang","sumber":"overture"},"geometry":{"type":"Point","coordinates":[110.429596,-7.002061]}},{"type":"Feature","properties":{"nama":"Bandeng Juwana","sumber":"osm"},"geometry":{"type":"Point","coordinates":[110.413202,-6.986488]}},{"type":"Feature","properties":{"nama":"Blessing Ollshop","sumber":"overture"},"geometry":{"type":"Point","coordinates":[110.400391,-6.995681]}},{"type":"Feature","properties":{"nama":"Bright Minimarket","sumber":"overture"},"geometry":{"type":"Point","coordinates":[110.421204,-7.01539]}},{"type":"Feature","properties":{"nama":"Cahaya Berkah69","sumber":"overture"},"geometry":{"type":"Point","coordinates":[110.470428,-7.00155]}},{"type":"Feature","properties":{"nama":"Cemara Cell","sumber":"overture"},"geometry":{"type":"Point","coordinates":[110.476128,-7.038743]}},{"type":"Feature","properties":{"nama":"Circle K","sumber":"overture"},"geometry":{"type":"Point","coordinates":[110.411362,-7.073443]}},{"type":"Feature","properties":{"nama":"Citra Mobilindo","sumber":"overture"},"geometry":{"type":"Point","coordinates":[110.455208,-7.003369]}},{"type":"Feature","properties":{"nama":"DEXT Technologies","sumber":"overture"},"geometry":{"type":"Point","coordinates":[110.424522,-6.981764]}},{"type":"Feature","properties":{"nama":"Farmers Market","sumber":"osm"},"geometry":{"type":"Point","coordinates":[110.366451,-6.974926]}},{"type":"Feature","properties":{"nama":"Fastpay Sampangan","sumber":"overture"},"geometry":{"type":"Point","coordinates":[110.395935,-7.015169]}},{"type":"Feature","properties":{"nama":"Foto Copy Imam","sumber":"overture"},"geometry":{"type":"Point","coordinates":[110.363792,-6.983557]}},{"type":"Feature","properties":{"nama":"Golden Taste Minimarket","sumber":"overture"},"geometry":{"type":"Point","coordinates":[110.458549,-6.982812]}},{"type":"Feature","properties":{"nama":"Goory Minimarket","sumber":"overture"},"geometry":{"type":"Point","coordinates":[110.347519,-6.996335]}},{"type":"Feature","properties":{"nama":"Green Mart Semarang","sumber":"overture"},"geometry":{"type":"Point","coordinates":[110.453758,-6.99053]}},{"type":"Feature","properties":{"nama":"Griya Salsabila I Mangunharjo Jl Durenan","sumber":"overture"},"geometry":{"type":"Point","coordinates":[110.466187,-7.048416]}},{"type":"Feature","properties":{"nama":"Griya narica","sumber":"overture"},"geometry":{"type":"Point","coordinates":[110.316422,-7.007197]}},{"type":"Feature","properties":{"nama":"Grosir Pak Saman","sumber":"overture"},"geometry":{"type":"Point","coordinates":[110.329285,-6.987822]}},{"type":"Feature","properties":{"nama":"Gula Jawa Jahe","sumber":"overture"},"geometry":{"type":"Point","coordinates":[110.469872,-7.00262]}},{"type":"Feature","properties":{"nama":"HALAL MART Gisikdrono semarang","sumber":"overture"},"geometry":{"type":"Point","coordinates":[110.386642,-6.997012]}},{"type":"Feature","properties":{"nama":"HNI HPAI Karang Rejo Banyumanik","sumber":"overture"},"geometry":{"type":"Point","coordinates":[110.416542,-7.075019]}},{"type":"Feature","properties":{"nama":"HW Helen's Night Mart Semarang","sumber":"overture"},"geometry":{"type":"Point","coordinates":[110.418365,-7.001385]}},{"type":"Feature","properties":{"nama":"Halal Mart HPA International","sumber":"overture"},"geometry":{"type":"Point","coordinates":[110.432739,-7.071694]}},{"type":"Feature","properties":{"nama":"Halal Mart MAS","sumber":"overture"},"geometry":{"type":"Point","coordinates":[110.443413,-6.986156]}},{"type":"Feature","properties":{"nama":"Hammersonic Motor","sumber":"overture"},"geometry":{"type":"Point","coordinates":[110.437599,-6.975037]}},{"type":"Feature","properties":{"nama":"Harmony Mart","sumber":"overture"},"geometry":{"type":"Point","coordinates":[110.437027,-6.970155]}},{"type":"Feature","properties":{"nama":"Harum Manis Mart","sumber":"overture"},"geometry":{"type":"Point","coordinates":[110.396141,-7.006322]}},{"type":"Feature","properties":{"nama":"Hasanudin Motor","sumber":"overture"},"geometry":{"type":"Point","coordinates":[110.411552,-6.967127]}},{"type":"Feature","properties":{"nama":"Indomaet Simongan","sumber":"osm"},"geometry":{"type":"Point","coordinates":[110.398338,-6.997073]}},{"type":"Feature","properties":{"nama":"Indomart Gemah Raya","sumber":"overture"},"geometry":{"type":"Point","coordinates":[110.480591,-6.980957]}},{"type":"Feature","properties":{"nama":"Indomart Kedungmundu 2","sumber":"overture"},"geometry":{"type":"Point","coordinates":[110.462006,-7.035807]}},{"type":"Feature","properties":{"nama":"Iphone Semarang Ori","sumber":"overture"},"geometry":{"type":"Point","coordinates":[110.446091,-6.997896]}},{"type":"Feature","properties":{"nama":"Istana Buah","sumber":"osm"},"geometry":{"type":"Point","coordinates":[110.421795,-6.984487]}},{"type":"Feature","properties":{"nama":"Jangkrik","sumber":"overture"},"geometry":{"type":"Point","coordinates":[110.41597,-6.965291]}},{"type":"Feature","properties":{"nama":"Kolam Lele Al-Zaen","sumber":"overture"},"geometry":{"type":"Point","coordinates":[110.353279,-7.092536]}},{"type":"Feature","properties":{"nama":"Ksm Mart","sumber":"overture"},"geometry":{"type":"Point","coordinates":[110.455688,-7.043061]}},{"type":"Feature","properties":{"nama":"Kwaci Cap Gajah","sumber":"osm"},"geometry":{"type":"Point","coordinates":[110.428044,-6.976305]}},{"type":"Feature","properties":{"nama":"Loenpia Rawit","sumber":"overture"},"geometry":{"type":"Point","coordinates":[110.460815,-6.994497]}},{"type":"Feature","properties":{"nama":"Loket PPOB Tata","sumber":"overture"},"geometry":{"type":"Point","coordinates":[110.468475,-7.061063]}},{"type":"Feature","properties":{"nama":"MG Offset","sumber":"overture"},"geometry":{"type":"Point","coordinates":[110.426521,-7.073102]}},{"type":"Feature","properties":{"nama":"Maharani Mart","sumber":"overture"},"geometry":{"type":"Point","coordinates":[110.380875,-7.006857]}},{"type":"Feature","properties":{"nama":"Mantu Lanang","sumber":"osm"},"geometry":{"type":"Point","coordinates":[110.395646,-7.050915]}},{"type":"Feature","properties":{"nama":"Marshal Loundry","sumber":"overture"},"geometry":{"type":"Point","coordinates":[110.372482,-7.009813]}},{"type":"Feature","properties":{"nama":"Marwa Herbal","sumber":"overture"},"geometry":{"type":"Point","coordinates":[110.427452,-7.001154]}},{"type":"Feature","properties":{"nama":"Mina Makmur","sumber":"overture"},"geometry":{"type":"Point","coordinates":[110.442444,-6.956972]}},{"type":"Feature","properties":{"nama":"Mini Market Aulia","sumber":"overture"},"geometry":{"type":"Point","coordinates":[110.426788,-7.008192]}},{"type":"Feature","properties":{"nama":"Minimarket Tlogosari Indah","sumber":"overture"},"geometry":{"type":"Point","coordinates":[110.459816,-6.983637]}},{"type":"Feature","properties":{"nama":"Mitra minimarket","sumber":"overture"},"geometry":{"type":"Point","coordinates":[110.427002,-6.976854]}},{"type":"Feature","properties":{"nama":"Mujiyanto Diecast","sumber":"overture"},"geometry":{"type":"Point","coordinates":[110.386177,-7.084742]}},{"type":"Feature","properties":{"nama":"Nailah Shop","sumber":"overture"},"geometry":{"type":"Point","coordinates":[110.446678,-6.962595]}},{"type":"Feature","properties":{"nama":"Nature Mart","sumber":"overture"},"geometry":{"type":"Point","coordinates":[110.435249,-6.976977]}},{"type":"Feature","properties":{"nama":"Omah Bandeng Saniyya","sumber":"overture"},"geometry":{"type":"Point","coordinates":[110.418297,-6.973922]}},{"type":"Feature","properties":{"nama":"Omah Madu Murni","sumber":"overture"},"geometry":{"type":"Point","coordinates":[110.438698,-7.033415]}},{"type":"Feature","properties":{"nama":"Omah Tigan","sumber":"overture"},"geometry":{"type":"Point","coordinates":[110.324074,-6.99556]}},{"type":"Feature","properties":{"nama":"Omahplafonpvc Semarang Jateng","sumber":"overture"},"geometry":{"type":"Point","coordinates":[110.453644,-6.988859]}},{"type":"Feature","properties":{"nama":"PD Alam Mulya","sumber":"osm"},"geometry":{"type":"Point","coordinates":[110.428053,-6.976201]}},{"type":"Feature","properties":{"nama":"PD Mahkota Jaya","sumber":"osm"},"geometry":{"type":"Point","coordinates":[110.427671,-6.97615]}},{"type":"Feature","properties":{"nama":"Pangan Mart","sumber":"overture"},"geometry":{"type":"Point","coordinates":[110.401535,-6.994324]}},{"type":"Feature","properties":{"nama":"Perlengkapan Alat Mandi","sumber":"osm"},"geometry":{"type":"Point","coordinates":[110.428022,-6.975627]}},{"type":"Feature","properties":{"nama":"Permata Abel","sumber":"overture"},"geometry":{"type":"Point","coordinates":[110.318588,-7.007075]}},{"type":"Feature","properties":{"nama":"Permata Furni Mart","sumber":"overture"},"geometry":{"type":"Point","coordinates":[110.320572,-7.092292]}},{"type":"Feature","properties":{"nama":"Pet O'Mart","sumber":"overture"},"geometry":{"type":"Point","coordinates":[110.360733,-7.089981]}},{"type":"Feature","properties":{"nama":"Phone Mart","sumber":"overture"},"geometry":{"type":"Point","coordinates":[110.42215,-6.989444]}},{"type":"Feature","properties":{"nama":"Premium Mart","sumber":"overture"},"geometry":{"type":"Point","coordinates":[110.410759,-6.962915]}},{"type":"Feature","properties":{"nama":"Prima Alm","sumber":"osm"},"geometry":{"type":"Point","coordinates":[110.404083,-6.990262]}},{"type":"Feature","properties":{"nama":"Purnama 15 Minimarket","sumber":"overture"},"geometry":{"type":"Point","coordinates":[110.428894,-6.98479]}},{"type":"Feature","properties":{"nama":"Pusat Kenari Gacoran Semarang","sumber":"overture"},"geometry":{"type":"Point","coordinates":[110.48793,-6.983949]}},{"type":"Feature","properties":{"nama":"Pusat Oleh Oleh Prima","sumber":"overture"},"geometry":{"type":"Point","coordinates":[110.362946,-6.987134]}},{"type":"Feature","properties":{"nama":"Putra Store Semarang","sumber":"overture"},"geometry":{"type":"Point","coordinates":[110.487358,-7.023712]}},{"type":"Feature","properties":{"nama":"Quinfreya Outdoor Gear","sumber":"overture"},"geometry":{"type":"Point","coordinates":[110.421326,-6.999339]}},{"type":"Feature","properties":{"nama":"RAS audio","sumber":"overture"},"geometry":{"type":"Point","coordinates":[110.462372,-7.053098]}},{"type":"Feature","properties":{"nama":"Radix Halal Mart","sumber":"overture"},"geometry":{"type":"Point","coordinates":[110.44429,-6.990107]}},{"type":"Feature","properties":{"nama":"Raffi Kandang Dan Umbaran","sumber":"overture"},"geometry":{"type":"Point","coordinates":[110.446968,-6.964267]}},{"type":"Feature","properties":{"nama":"Raja Batu","sumber":"overture"},"geometry":{"type":"Point","coordinates":[110.46698,-7.009312]}},{"type":"Feature","properties":{"nama":"Rajawali Toystore Gajahmada","sumber":"overture"},"geometry":{"type":"Point","coordinates":[110.42012,-6.975071]}},{"type":"Feature","properties":{"nama":"Reno Food N Mart (Reno Shop Ungaran)","sumber":"overture"},"geometry":{"type":"Point","coordinates":[110.392799,-7.108189]}},{"type":"Feature","properties":{"nama":"Rhysaka Fish","sumber":"overture"},"geometry":{"type":"Point","coordinates":[110.333054,-6.979979]}},{"type":"Feature","properties":{"nama":"Rizky Mart","sumber":"osm"},"geometry":{"type":"Point","coordinates":[110.317568,-7.004149]}},{"type":"Feature","properties":{"nama":"Ruko","sumber":"osm"},"geometry":{"type":"Point","coordinates":[110.428068,-6.976094]}},{"type":"Feature","properties":{"nama":"Ruko","sumber":"osm"},"geometry":{"type":"Point","coordinates":[110.428083,-6.976055]}},{"type":"Feature","properties":{"nama":"Ruko","sumber":"osm"},"geometry":{"type":"Point","coordinates":[110.428111,-6.975738]}},{"type":"Feature","properties":{"nama":"Ruko","sumber":"osm"},"geometry":{"type":"Point","coordinates":[110.427995,-6.976424]}},{"type":"Feature","properties":{"nama":"Ruko","sumber":"osm"},"geometry":{"type":"Point","coordinates":[110.428103,-6.975957]}},{"type":"Feature","properties":{"nama":"Rumah Durian Pak Yusuf","sumber":"overture"},"geometry":{"type":"Point","coordinates":[110.360176,-7.078387]}},{"type":"Feature","properties":{"nama":"SRC Meiliana","sumber":"overture"},"geometry":{"type":"Point","coordinates":[110.414635,-7.100012]}},{"type":"Feature","properties":{"nama":"Samben Cell","sumber":"overture"},"geometry":{"type":"Point","coordinates":[110.332512,-7.098785]}},{"type":"Feature","properties":{"nama":"Sanidata Putri Medika","sumber":"osm"},"geometry":{"type":"Point","coordinates":[110.434973,-6.986504]}},{"type":"Feature","properties":{"nama":"Sarang Kicau","sumber":"overture"},"geometry":{"type":"Point","coordinates":[110.47821,-6.964844]}},{"type":"Feature","properties":{"nama":"Selarashop","sumber":"overture"},"geometry":{"type":"Point","coordinates":[110.44162,-6.993667]}},{"type":"Feature","properties":{"nama":"Sempurna Mart","sumber":"overture"},"geometry":{"type":"Point","coordinates":[110.422012,-6.981316]}},{"type":"Feature","properties":{"nama":"Snack Tiga Putra","sumber":"overture"},"geometry":{"type":"Point","coordinates":[110.428238,-7.027385]}},{"type":"Feature","properties":{"nama":"Sokomass Cell","sumber":"overture"},"geometry":{"type":"Point","coordinates":[110.389061,-6.990746]}},{"type":"Feature","properties":{"nama":"Spartta Motor","sumber":"overture"},"geometry":{"type":"Point","coordinates":[110.47065,-6.954201]}},{"type":"Feature","properties":{"nama":"Stockist Nasa Gunungpati Semarang","sumber":"overture"},"geometry":{"type":"Point","coordinates":[110.363098,-7.086602]}},{"type":"Feature","properties":{"nama":"Sumadi Pangkalan Elpiji 3 Kg","sumber":"overture"},"geometry":{"type":"Point","coordinates":[110.463173,-7.034534]}},{"type":"Feature","properties":{"nama":"Sumber Alfaria Trijaya","sumber":"overture"},"geometry":{"type":"Point","coordinates":[110.405457,-6.974593]}},{"type":"Feature","properties":{"nama":"Temon Motor","sumber":"overture"},"geometry":{"type":"Point","coordinates":[110.397095,-7.05886]}},{"type":"Feature","properties":{"nama":"Tempe Viena","sumber":"overture"},"geometry":{"type":"Point","coordinates":[110.47683,-7.022338]}},{"type":"Feature","properties":{"nama":"Toko Delima - Baking School","sumber":"osm"},"geometry":{"type":"Point","coordinates":[110.42671,-7.002812]}},{"type":"Feature","properties":{"nama":"Toko Sri","sumber":"osm"},"geometry":{"type":"Point","coordinates":[110.428012,-6.976552]}},{"type":"Feature","properties":{"nama":"Tong Hien","sumber":"overture"},"geometry":{"type":"Point","coordinates":[110.416008,-7.008575]}},{"type":"Feature","properties":{"nama":"Toramart","sumber":"osm"},"geometry":{"type":"Point","coordinates":[110.467822,-7.043837]}},{"type":"Feature","properties":{"nama":"Trex's Trail Shop","sumber":"overture"},"geometry":{"type":"Point","coordinates":[110.392448,-7.003003]}},{"type":"Feature","properties":{"nama":"Victory Cell","sumber":"overture"},"geometry":{"type":"Point","coordinates":[110.407478,-6.958648]}},{"type":"Feature","properties":{"nama":"Violet Collection","sumber":"overture"},"geometry":{"type":"Point","coordinates":[110.309883,-7.072755]}},{"type":"Feature","properties":{"nama":"Viva Generik","sumber":"osm"},"geometry":{"type":"Point","coordinates":[110.397432,-6.973724]}},{"type":"Feature","properties":{"nama":"Waroeng Panser","sumber":"overture"},"geometry":{"type":"Point","coordinates":[110.31282,-7.051469]}},{"type":"Feature","properties":{"nama":"We Cell","sumber":"overture"},"geometry":{"type":"Point","coordinates":[110.375801,-7.012975]}},{"type":"Feature","properties":{"nama":"Yitno Terpal","sumber":"overture"},"geometry":{"type":"Point","coordinates":[110.431152,-6.990581]}},{"type":"Feature","properties":{"nama":"Yulia Mobil","sumber":"overture"},"geometry":{"type":"Point","coordinates":[110.399536,-6.981674]}},{"type":"Feature","properties":{"nama":"Zindomart Semarang","sumber":"overture"},"geometry":{"type":"Point","coordinates":[110.41729,-7.065799]}},{"type":"Feature","properties":{"nama":"ikan Cupang Mas Ary","sumber":"overture"},"geometry":{"type":"Point","coordinates":[110.438812,-6.949812]}},{"type":"Feature","properties":{"nama":"omah koi semarang","sumber":"overture"},"geometry":{"type":"Point","coordinates":[110.391121,-6.983749]}},{"type":"Feature","properties":{"nama":"winnie sell","sumber":"overture"},"geometry":{"type":"Point","coordinates":[110.477516,-6.981092]}}]}